KUIPER-00232            
1 67148U 25301R   26001.60816724  .00059195  00000+0  16123-2 0  9993
2 67148  51.8746  29.1639 0002546  67.4615 292.6641 15.36920810  3429
KUIPER-00241            
1 67149U 25301S   26001.61308917  .00068509  00000+0  18894-2 0  9991
2 67149  51.8746  29.1950 0002965 105.6128 254.5185 15.36467198  3756
KUIPER-00245            
1 67150U 25301T   26001.55446221  .00044370  00000+0  12515-2 0  9991
2 67150  51.8724  29.5539 0005222 138.9353 221.2027 15.35953885  3410
KUIPER-00246            
1 67151U 25301U   26001.61624716  .00032243  00000+0  90664-3 0  9994
2 67151  51.8738  29.2177 0004135 130.9224 229.2120 15.36205837  3445
KUIPER-00247            
1 67152U 25301V   26001.63708738  .00031681  00000+0  94368-3 0  9994
2 67152  51.8633  29.3502 0011108 172.2198 187.8961 15.34355205  3423
KUIPER-00248            
1 67153U 25301W   26001.62989610  .00043463  00000+0  12611-2 0  9995
2 67153  51.8677  29.3071 0008827 159.5217 200.6124 15.35053614  3590
KUIPER-00249            
1 67154U 25301X   26001.62801055  .00048582  00000+0  14017-2 0  9991
2 67154  51.8652  29.2935 0008430 157.6028 202.5328 15.35181996  3425
KUIPER-00250            
1 67155U 25301Y   26001.62262633  .00049641  00000+0  14078-2 0  9999
2 67155  51.8715  29.2613 0006489 146.1331 214.0070 15.35725682  3452
KUIPER-00251            
1 67156U 25301Z   26001.56380333  .00043861  00000+0  12684-2 0  9990
2 67156  51.8665  29.6134 0009080 154.4829 205.6606 15.35151538  3604
KUIPER-00252            
1 67157U 25301AA  26001.63414631  .00031925  00000+0  94679-3 0  9991
2 67157  51.8657  29.3334 0009845 166.1360 193.9897 15.34502667  3427
KUIPER-00261            
1 67158U 25301AB  26001.58335648  .00078978  00000+0  22324-2 0  9992
2 67158  51.8693  29.4408 0006090 140.8624   7.5960 15.35621680  2880
KUIPER-00265            
1 67159U 25301AC  26001.61102104  .00060650  00000+0  16626-2 0  9992
2 67159  51.8741  29.1847 0002091 108.3939 251.7275 15.36711939  3458
