CCSDS_OMM_VERS = 2.0
CREATION_DATE  = 
ORIGINATOR     = 

OBJECT_NAME    = KUIPER-00232
OBJECT_ID      = 2025-301R
CENTER_NAME    = EARTH
REF_FRAME      = TEME
TIME_SYSTEM    = UTC
MEAN_ELEMENT_THEORY = SGP/SGP4

EPOCH          = 2026-01-01T14:35:45.649536
MEAN_MOTION    = 15.36920810
ECCENTRICITY   = .00025465
INCLINATION    = 51.8746
RA_OF_ASC_NODE = 29.1639
ARG_OF_PERICENTER = 67.4615
MEAN_ANOMALY   = 292.6641

EPHEMERIS_TYPE = 0
CLASSIFICATION_TYPE = U
NORAD_CAT_ID   = 67148
ELEMENT_SET_NO = 999
REV_AT_EPOCH   = 342
BSTAR          = .16123478E-2
MEAN_MOTION_DOT = .59195E-3
MEAN_MOTION_DDOT = 0

CCSDS_OMM_VERS = 2.0
CREATION_DATE  = 
ORIGINATOR     = 

OBJECT_NAME    = KUIPER-00241
OBJECT_ID      = 2025-301S
CENTER_NAME    = EARTH
REF_FRAME      = TEME
TIME_SYSTEM    = UTC
MEAN_ELEMENT_THEORY = SGP/SGP4

EPOCH          = 2026-01-01T14:42:50.904288
MEAN_MOTION    = 15.36467198
ECCENTRICITY   = .00029654
INCLINATION    = 51.8746
RA_OF_ASC_NODE = 29.1950
ARG_OF_PERICENTER = 105.6128
MEAN_ANOMALY   = 254.5185

EPHEMERIS_TYPE = 0
CLASSIFICATION_TYPE = U
NORAD_CAT_ID   = 67149
ELEMENT_SET_NO = 999
REV_AT_EPOCH   = 375
BSTAR          = .18894318E-2
MEAN_MOTION_DOT = .68509E-3
MEAN_MOTION_DDOT = 0

CCSDS_OMM_VERS = 2.0
CREATION_DATE  = 
ORIGINATOR     = 

OBJECT_NAME    = KUIPER-00245
OBJECT_ID      = 2025-301T
CENTER_NAME    = EARTH
REF_FRAME      = TEME
TIME_SYSTEM    = UTC
MEAN_ELEMENT_THEORY = SGP/SGP4

EPOCH          = 2026-01-01T13:18:25.534944
MEAN_MOTION    = 15.35953885
ECCENTRICITY   = .00052224
INCLINATION    = 51.8724
RA_OF_ASC_NODE = 29.5539
ARG_OF_PERICENTER = 138.9353
MEAN_ANOMALY   = 221.2027

EPHEMERIS_TYPE = 0
CLASSIFICATION_TYPE = U
NORAD_CAT_ID   = 67150
ELEMENT_SET_NO = 999
REV_AT_EPOCH   = 341
BSTAR          = .12514835E-2
MEAN_MOTION_DOT = .4437E-3
MEAN_MOTION_DDOT = 0

CCSDS_OMM_VERS = 2.0
CREATION_DATE  = 
ORIGINATOR     = 

OBJECT_NAME    = KUIPER-00246
OBJECT_ID      = 2025-301U
CENTER_NAME    = EARTH
REF_FRAME      = TEME
TIME_SYSTEM    = UTC
MEAN_ELEMENT_THEORY = SGP/SGP4

EPOCH          = 2026-01-01T14:47:23.754624
MEAN_MOTION    = 15.36205837
ECCENTRICITY   = .00041354
INCLINATION    = 51.8738
RA_OF_ASC_NODE = 29.2177
ARG_OF_PERICENTER = 130.9224
MEAN_ANOMALY   = 229.2120

EPHEMERIS_TYPE = 0
CLASSIFICATION_TYPE = U
NORAD_CAT_ID   = 67151
ELEMENT_SET_NO = 999
REV_AT_EPOCH   = 344
BSTAR          = .90663816E-3
MEAN_MOTION_DOT = .32243E-3
MEAN_MOTION_DDOT = 0

CCSDS_OMM_VERS = 2.0
CREATION_DATE  = 
ORIGINATOR     = 

OBJECT_NAME    = KUIPER-00247
OBJECT_ID      = 2025-301V
CENTER_NAME    = EARTH
REF_FRAME      = TEME
TIME_SYSTEM    = UTC
MEAN_ELEMENT_THEORY = SGP/SGP4

EPOCH          = 2026-01-01T15:17:24.349632
MEAN_MOTION    = 15.34355205
ECCENTRICITY   = .00111084
INCLINATION    = 51.8633
RA_OF_ASC_NODE = 29.3502
ARG_OF_PERICENTER = 172.2198
MEAN_ANOMALY   = 187.8961

EPHEMERIS_TYPE = 0
CLASSIFICATION_TYPE = U
NORAD_CAT_ID   = 67152
ELEMENT_SET_NO = 999
REV_AT_EPOCH   = 342
BSTAR          = .94367544E-3
MEAN_MOTION_DOT = .31681E-3
MEAN_MOTION_DDOT = 0

CCSDS_OMM_VERS = 2.0
CREATION_DATE  = 
ORIGINATOR     = 

OBJECT_NAME    = KUIPER-00248
OBJECT_ID      = 2025-301W
CENTER_NAME    = EARTH
REF_FRAME      = TEME
TIME_SYSTEM    = UTC
MEAN_ELEMENT_THEORY = SGP/SGP4

EPOCH          = 2026-01-01T15:07:03.023040
MEAN_MOTION    = 15.35053614
ECCENTRICITY   = .00088276
INCLINATION    = 51.8677
RA_OF_ASC_NODE = 29.3071
ARG_OF_PERICENTER = 159.5217
MEAN_ANOMALY   = 200.6124

EPHEMERIS_TYPE = 0
CLASSIFICATION_TYPE = U
NORAD_CAT_ID   = 67153
ELEMENT_SET_NO = 999
REV_AT_EPOCH   = 359
BSTAR          = .12610617E-2
MEAN_MOTION_DOT = .43463E-3
MEAN_MOTION_DDOT = 0

CCSDS_OMM_VERS = 2.0
CREATION_DATE  = 
ORIGINATOR     = 

OBJECT_NAME    = KUIPER-00249
OBJECT_ID      = 2025-301X
CENTER_NAME    = EARTH
REF_FRAME      = TEME
TIME_SYSTEM    = UTC
MEAN_ELEMENT_THEORY = SGP/SGP4

EPOCH          = 2026-01-01T15:04:20.111520
MEAN_MOTION    = 15.35181996
ECCENTRICITY   = .00084301
INCLINATION    = 51.8652
RA_OF_ASC_NODE = 29.2935
ARG_OF_PERICENTER = 157.6028
MEAN_ANOMALY   = 202.5328

EPHEMERIS_TYPE = 0
CLASSIFICATION_TYPE = U
NORAD_CAT_ID   = 67154
ELEMENT_SET_NO = 999
REV_AT_EPOCH   = 342
BSTAR          = .1401728E-2
MEAN_MOTION_DOT = .48582E-3
MEAN_MOTION_DDOT = 0

CCSDS_OMM_VERS = 2.0
CREATION_DATE  = 
ORIGINATOR     = 

OBJECT_NAME    = KUIPER-00250
OBJECT_ID      = 2025-301Y
CENTER_NAME    = EARTH
REF_FRAME      = TEME
TIME_SYSTEM    = UTC
MEAN_ELEMENT_THEORY = SGP/SGP4

EPOCH          = 2026-01-01T14:56:34.914912
MEAN_MOTION    = 15.35725682
ECCENTRICITY   = .00064895
INCLINATION    = 51.8715
RA_OF_ASC_NODE = 29.2613
ARG_OF_PERICENTER = 146.1331
MEAN_ANOMALY   = 214.0070

EPHEMERIS_TYPE = 0
CLASSIFICATION_TYPE = U
NORAD_CAT_ID   = 67155
ELEMENT_SET_NO = 999
REV_AT_EPOCH   = 345
BSTAR          = .14078385E-2
MEAN_MOTION_DOT = .49641E-3
MEAN_MOTION_DDOT = 0

CCSDS_OMM_VERS = 2.0
CREATION_DATE  = 
ORIGINATOR     = 

OBJECT_NAME    = KUIPER-00251
OBJECT_ID      = 2025-301Z
CENTER_NAME    = EARTH
REF_FRAME      = TEME
TIME_SYSTEM    = UTC
MEAN_ELEMENT_THEORY = SGP/SGP4

EPOCH          = 2026-01-01T13:31:52.607712
MEAN_MOTION    = 15.35151538
ECCENTRICITY   = .00090809
INCLINATION    = 51.8665
RA_OF_ASC_NODE = 29.6134
ARG_OF_PERICENTER = 154.4829
MEAN_ANOMALY   = 205.6606

EPHEMERIS_TYPE = 0
CLASSIFICATION_TYPE = U
NORAD_CAT_ID   = 67156
ELEMENT_SET_NO = 999
REV_AT_EPOCH   = 360
BSTAR          = .12683968E-2
MEAN_MOTION_DOT = .43861E-3
MEAN_MOTION_DDOT = 0

CCSDS_OMM_VERS = 2.0
CREATION_DATE  = 
ORIGINATOR     = 

OBJECT_NAME    = KUIPER-00252
OBJECT_ID      = 2025-301AA
CENTER_NAME    = EARTH
REF_FRAME      = TEME
TIME_SYSTEM    = UTC
MEAN_ELEMENT_THEORY = SGP/SGP4

EPOCH          = 2026-01-01T15:13:10.241184
MEAN_MOTION    = 15.34502667
ECCENTRICITY   = .00098459
INCLINATION    = 51.8657
RA_OF_ASC_NODE = 29.3334
ARG_OF_PERICENTER = 166.1360
MEAN_ANOMALY   = 193.9897

EPHEMERIS_TYPE = 0
CLASSIFICATION_TYPE = U
NORAD_CAT_ID   = 67157
ELEMENT_SET_NO = 999
REV_AT_EPOCH   = 342
BSTAR          = .94678774E-3
MEAN_MOTION_DOT = .31925E-3
MEAN_MOTION_DDOT = 0

CCSDS_OMM_VERS = 2.0
CREATION_DATE  = 
ORIGINATOR     = 

OBJECT_NAME    = KUIPER-00261
OBJECT_ID      = 2025-301AB
CENTER_NAME    = EARTH
REF_FRAME      = TEME
TIME_SYSTEM    = UTC
MEAN_ELEMENT_THEORY = SGP/SGP4

EPOCH          = 2026-01-01T14:00:01.999872
MEAN_MOTION    = 15.35621680
ECCENTRICITY   = .000609
INCLINATION    = 51.8693
RA_OF_ASC_NODE = 29.4408
ARG_OF_PERICENTER = 140.8624
MEAN_ANOMALY   = 7.5960

EPHEMERIS_TYPE = 0
CLASSIFICATION_TYPE = U
NORAD_CAT_ID   = 67158
ELEMENT_SET_NO = 999
REV_AT_EPOCH   = 288
BSTAR          = .22323556E-2
MEAN_MOTION_DOT = .78978E-3
MEAN_MOTION_DDOT = 0

CCSDS_OMM_VERS = 2.0
CREATION_DATE  = 
ORIGINATOR     = 

OBJECT_NAME    = KUIPER-00265
OBJECT_ID      = 2025-301AC
CENTER_NAME    = EARTH
REF_FRAME      = TEME
TIME_SYSTEM    = UTC
MEAN_ELEMENT_THEORY = SGP/SGP4

EPOCH          = 2026-01-01T14:39:52.217856
MEAN_MOTION    = 15.36711939
ECCENTRICITY   = .00020919
INCLINATION    = 51.8741
RA_OF_ASC_NODE = 29.1847
ARG_OF_PERICENTER = 108.3939
MEAN_ANOMALY   = 251.7275

EPHEMERIS_TYPE = 0
CLASSIFICATION_TYPE = U
NORAD_CAT_ID   = 67159
ELEMENT_SET_NO = 999
REV_AT_EPOCH   = 345
BSTAR          = .1662592E-2
MEAN_MOTION_DOT = .6065E-3
MEAN_MOTION_DDOT = 0

